STARLINK-2701           
1 48656U 21044U   26068.41633844  .00011640  00000+0  40422-3 0  9991
2 48656  53.1590 115.1314 0001512 109.2317 250.8847 15.30223298263787
NUSAT-50 (NANCY ROMAN)  
1 60493U 24149AB  26068.80227738  .00012094  00000+0  42252-3 0  9994
2 60493  97.3817 150.7693 0002523 238.0469 122.0527 15.29713355 86930
