[{"OBJECT_NAME":"STARLINK-2701","OBJECT_ID":"2021-044U","EPOCH":"2026-03-09T09:59:31.641216","MEAN_MOTION":15.30223298,"ECCENTRICITY":0.00015126,"INCLINATION":53.159,"RA_OF_ASC_NODE":115.1314,"ARG_OF_PERICENTER":109.2317,"MEAN_ANOMALY":250.8847,"EPHEMERIS_TYPE":0,"CLASSIFICATION_TYPE":"U","NORAD_CAT_ID":48656,"ELEMENT_SET_NO":999,"REV_AT_EPOCH":26378,"BSTAR":0.00040421747,"MEAN_MOTION_DOT":0.0001164,"MEAN_MOTION_DDOT":0},{"OBJECT_NAME":"NUSAT-50 (NANCY ROMAN)","OBJECT_ID":"2024-149AB","EPOCH":"2026-03-09T19:15:16.765632","MEAN_MOTION":15.29713355,"ECCENTRICITY":0.00025229,"INCLINATION":97.3817,"RA_OF_ASC_NODE":150.7693,"ARG_OF_PERICENTER":238.0469,"MEAN_ANOMALY":122.0527,"EPHEMERIS_TYPE":0,"CLASSIFICATION_TYPE":"U","NORAD_CAT_ID":60493,"ELEMENT_SET_NO":999,"REV_AT_EPOCH":8693,"BSTAR":0.0004225155,"MEAN_MOTION_DOT":0.00012094,"MEAN_MOTION_DDOT":0}]
